{
  "type": "FeatureCollection",
  "features": [
    {
      "type": "Feature",
      "properties": {
        "norad_id": 32376,
        "name": "COSMO-SKYMED 2",
        "group": "resource",
        "lat": -61.26990195792492,
        "lon": -27.63484302945257,
        "alt_km": 630.6544251255436,
        "timestamp": "2025-12-11T15:53:39.198715+00:00",
        "meta_object_name": "COSMO-SKYMED 2",
        "meta_object_id": "2007-059A",
        "meta_epoch": "2025-12-11T06:42:12.658752",
        "meta_mean_motion": 14.82167079,
        "meta_eccentricity": 0.00015229,
        "meta_inclination": 97.8811,
        "meta_ra_of_asc_node": 166.6251,
        "meta_arg_of_pericenter": 84.8208,
        "meta_mean_anomaly": 275.3179,
        "meta_ephemeris_type": 0,
        "meta_classification_type": "U",
        "meta_norad_cat_id": 32376,
        "meta_element_set_no": 999,
        "meta_rev_at_epoch": 97416,
        "meta_bstar": 0.00018847227,
        "meta_mean_motion_dot": 1.449e-05,
        "meta_mean_motion_ddot": 0,
        "tle_line1": "1 32376U 07059A   25345.27931318  .00001449  00000+0  18847-3 0  9993",
        "tle_line2": "2 32376  97.8811 166.6251 0001522  84.8208 275.3179 14.82167079974160"
      },
      "geometry": {
        "type": "Point",
        "coordinates": [
          -27.63484302945257,
          -61.26990195792492
        ]
      }
    },
    {
      "type": "Feature",
      "properties": {
        "norad_id": 32382,
        "name": "RADARSAT-2",
        "group": "resource",
        "lat": 32.655277653939855,
        "lon": -15.284841050999598,
        "alt_km": 789.3116201817311,
        "timestamp": "2025-12-11T15:53:39.198725+00:00",
        "meta_object_name": "RADARSAT-2",
        "meta_object_id": "2007-061A",
        "meta_epoch": "2025-12-11T07:20:36.815424",
        "meta_mean_motion": 14.29980619,
        "meta_eccentricity": 0.00011109,
        "meta_inclination": 98.58,
        "meta_ra_of_asc_node": 349.9166,
        "meta_arg_of_pericenter": 86.4776,
        "meta_mean_anomaly": 273.6534,
        "meta_ephemeris_type": 0,
        "meta_classification_type": "U",
        "meta_norad_cat_id": 32382,
        "meta_element_set_no": 999,
        "meta_rev_at_epoch": 93910,
        "meta_bstar": -3.9989287e-05,
        "meta_mean_motion_dot": -1.47e-06,
        "meta_mean_motion_ddot": 0,
        "tle_line1": "1 32382U 07061A   25345.30598166 -.00000147  00000+0 -39989-4 0  9994",
        "tle_line2": "2 32382  98.5800 349.9166 0001110  86.4776 273.6534 14.29980619939100"
      },
      "geometry": {
        "type": "Point",
        "coordinates": [
          -15.284841050999598,
          32.655277653939855
        ]
      }
    },
    {
      "type": "Feature",
      "properties": {
        "norad_id": 32783,
        "name": "CARTOSAT-2A",
        "group": "resource",
        "lat": 34.00503241707752,
        "lon": 30.21789445047483,
        "alt_km": 622.9808914242794,
        "timestamp": "2025-12-11T15:53:39.198736+00:00",
        "meta_object_name": "CARTOSAT-2A",
        "meta_object_id": "2008-021A",
        "meta_epoch": "2025-12-11T07:37:14.907360",
        "meta_mean_motion": 14.78934343,
        "meta_eccentricity": 0.00120249,
        "meta_inclination": 97.7929,
        "meta_ra_of_asc_node": 35.1851,
        "meta_arg_of_pericenter": 9.3233,
        "meta_mean_anomaly": 350.82,
        "meta_ephemeris_type": 0,
        "meta_classification_type": "U",
        "meta_norad_cat_id": 32783,
        "meta_element_set_no": 999,
        "meta_rev_at_epoch": 95103,
        "meta_bstar": 0.00025211669,
        "meta_mean_motion_dot": 1.811e-05,
        "meta_mean_motion_ddot": 0,
        "tle_line1": "1 32783U 08021A   25345.31753365  .00001811  00000+0  25212-3 0  9991",
        "tle_line2": "2 32783  97.7929  35.1851 0012024   9.3233 350.8200 14.78934343951032"
      },
      "geometry": {
        "type": "Point",
        "coordinates": [
          30.21789445047483,
          34.00503241707752
        ]
      }
    },
    {
      "type": "Feature",
      "properties": {
        "norad_id": 33320,
        "name": "HUANJING 1A (HJ-1A)",
        "group": "resource",
        "lat": -61.533353765389904,
        "lon": 139.64391855518963,
        "alt_km": 638.7500735199656,
        "timestamp": "2025-12-11T15:53:39.198746+00:00",
        "meta_object_name": "HUANJING 1A (HJ-1A)",
        "meta_object_id": "2008-041A",
        "meta_epoch": "2025-12-11T06:42:36.715104",
        "meta_mean_motion": 14.8338928,
        "meta_eccentricity": 0.00203255,
        "meta_inclination": 97.6547,
        "meta_ra_of_asc_node": 333.6391,
        "meta_arg_of_pericenter": 39.0871,
        "meta_mean_anomaly": 321.1808,
        "meta_ephemeris_type": 0,
        "meta_classification_type": "U",
        "meta_norad_cat_id": 33320,
        "meta_element_set_no": 999,
        "meta_rev_at_epoch": 93054,
        "meta_bstar": 0.00039339924,
        "meta_mean_motion_dot": 3.188e-05,
        "meta_mean_motion_ddot": 0,
        "tle_line1": "1 33320U 08041A   25345.27959161  .00003188  00000+0  39340-3 0  9994",
        "tle_line2": "2 33320  97.6547 333.6391 0020325  39.0871 321.1808 14.83389280930549"
      },
      "geometry": {
        "type": "Point",
        "coordinates": [
          139.64391855518963,
          -61.533353765389904
        ]
      }
    },
    {
      "type": "Feature",
      "properties": {
        "norad_id": 33321,
        "name": "HUANJING 1B (HJ-1B)",
        "group": "resource",
        "lat": 72.23615633405723,
        "lon": -177.52303152796827,
        "alt_km": 589.6402970673735,
        "timestamp": "2025-12-11T15:53:39.198759+00:00",
        "meta_object_name": "HUANJING 1B (HJ-1B)",
        "meta_object_id": "2008-041B",
        "meta_epoch": "2025-12-11T05:42:11.814336",
        "meta_mean_motion": 14.82814688,
        "meta_eccentricity": 0.00382714,
        "meta_inclination": 97.6403,
        "meta_ra_of_asc_node": 337.2996,
        "meta_arg_of_pericenter": 80.3328,
        "meta_mean_anomaly": 280.2206,
        "meta_ephemeris_type": 0,
        "meta_classification_type": "U",
        "meta_norad_cat_id": 33321,
        "meta_element_set_no": 999,
        "meta_rev_at_epoch": 93055,
        "meta_bstar": 0.00023348912,
        "meta_mean_motion_dot": 1.862e-05,
        "meta_mean_motion_ddot": 0,
        "tle_line1": "1 33321U 08041B   25345.23763674  .00001862  00000+0  23349-3 0  9992",
        "tle_line2": "2 33321  97.6403 337.2996 0038271  80.3328 280.2206 14.82814688930559"
      },
      "geometry": {
        "type": "Point",
        "coordinates": [
          -177.52303152796827,
          72.23615633405723
        ]
      }
    },
    {
      "type": "Feature",
      "properties": {
        "norad_id": 33331,
        "name": "GEOEYE 1",
        "group": "resource",
        "lat": 17.96552190481272,
        "lon": -120.38838044820346,
        "alt_km": 679.044798964278,
        "timestamp": "2025-12-11T15:53:39.198769+00:00",
        "meta_object_name": "GEOEYE 1",
        "meta_object_id": "2008-042A",
        "meta_epoch": "2025-12-11T05:19:17.302656",
        "meta_mean_motion": 14.6480927,
        "meta_eccentricity": 0.00027463,
        "meta_inclination": 98.1254,
        "meta_ra_of_asc_node": 56.5214,
        "meta_arg_of_pericenter": 283.1614,
        "meta_mean_anomaly": 76.9282,
        "meta_ephemeris_type": 0,
        "meta_classification_type": "U",
        "meta_norad_cat_id": 33331,
        "meta_element_set_no": 999,
        "meta_rev_at_epoch": 92263,
        "meta_bstar": 0.00018685944,
        "meta_mean_motion_dot": 9.49e-06,
        "meta_mean_motion_ddot": 0,
        "tle_line1": "1 33331U 08042A   25345.22172804  .00000949  00000+0  18686-3 0  9995",
        "tle_line2": "2 33331  98.1254  56.5214 0002746 283.1614  76.9282 14.64809270922638"
      },
      "geometry": {
        "type": "Point",
        "coordinates": [
          -120.38838044820346,
          17.96552190481272
        ]
      }
    },
    {
      "type": "Feature",
      "properties": {
        "norad_id": 33396,
        "name": "THEOS",
        "group": "resource",
        "lat": -11.720698272286787,
        "lon": -138.0131719704891,
        "alt_km": 829.4322085030808,
        "timestamp": "2025-12-11T15:53:39.198780+00:00",
        "meta_object_name": "THEOS",
        "meta_object_id": "2008-049A",
        "meta_epoch": "2025-12-11T06:32:21.680160",
        "meta_mean_motion": 14.20096163,
        "meta_eccentricity": 0.0001135,
        "meta_inclination": 98.5865,
        "meta_ra_of_asc_node": 43.4049,
        "meta_arg_of_pericenter": 96.3698,
        "meta_mean_anomaly": 263.7608,
        "meta_ephemeris_type": 0,
        "meta_classification_type": "U",
        "meta_norad_cat_id": 33396,
        "meta_element_set_no": 999,
        "meta_rev_at_epoch": 89129,
        "meta_bstar": 4.9123625e-05,
        "meta_mean_motion_dot": 6.2e-07,
        "meta_mean_motion_ddot": 0,
        "tle_line1": "1 33396U 08049A   25345.27247315  .00000062  00000+0  49124-4 0  9996",
        "tle_line2": "2 33396  98.5865  43.4049 0001135  96.3698 263.7608 14.20096163891295"
      },
      "geometry": {
        "type": "Point",
        "coordinates": [
          -138.0131719704891,
          -11.720698272286787
        ]
      }
    }
  ]
}